HERMES-3                
1 63835U 25052BR  26068.93751242  .00020316  00000+0  69958-3 0  9995
2 63835  97.3987 324.6131 0007993 112.9583 247.2502 15.30039785 54863
STARLINK-34831          
1 65345U 25189Y   26068.60214016  .00043074  00000+0  14582-2 0  9999
2 65345  53.1574 207.1267 0001056  76.9728 283.1390 15.30195782 31108
